STARLINK-3655           
1 51983U 22025AD  24366.79901834  .00001004  00000+0  81175-4 0  9999
2 51983  53.2158 182.4453 0001264  82.0377 278.0758 15.08838987155701
STARLINK-3664           
1 51984U 22025AE  24366.90302493  .00000204  00000+0  30910-4 0  9991
2 51984  53.2162 182.0631 0001276  86.9295 273.1843 15.08839731155727
STARLINK-3651           
1 51985U 22025AF  24366.79261109  .00000975  00000+0  79320-4 0  9990
2 51985  53.2172 182.4790 0001228  91.6090 268.5042 15.08841479155701
STARLINK-3645           
1 51986U 22025AG  24366.87260253  .00000543  00000+0  52190-4 0  9996
2 51986  53.2156 181.9542 0001307  81.6332 278.4808 15.08838646155723
STARLINK-3644           
1 51987U 22025AH  24366.76959385 -.00000158  00000+0  81598-5 0  9994
2 51987  53.2163 182.5755 0001056  90.9861 269.1252 15.08830035155708
STARLINK-3640           
1 51988U 22025AJ  24366.48621781  .00001097  00000+0  87010-4 0  9996
2 51988  53.2160 183.8461 0001320  89.9818 270.1325 15.08839406155667
STARLINK-3642           
1 51989U 22025AK  24366.76589553  .00001130  00000+0  89088-4 0  9993
2 51989  53.2156 182.5905 0001479  87.6174 272.4988 15.08839469155701
STARLINK-3657           
1 51990U 22025AL  24366.73461661  .00007144  00000+0  46688-3 0  9990
2 51990  53.2154 162.7287 0001412 101.6149 258.5001 15.08807334155976
STARLINK-3652           
1 51991U 22025AM  24366.75853728  .00001631  00000+0  12053-3 0  9996
2 51991  53.2169 182.6262 0001565  87.8195 272.2976 15.08843247155700
STARLINK-3643           
1 51992U 22025AN  24366.72357429  .00001208  00000+0  93979-4 0  9998
2 51992  53.2180 162.7804 0001363  87.7070 272.4078 15.08845081155547
STARLINK-3648           
1 51993U 22025AP  24366.87997472  .00001698  00000+0  12476-3 0  9998
2 51993  53.2162 182.0774 0001293  84.5929 275.5211 15.08841455155723
STARLINK-3647           
1 51994U 22025AQ  24366.85237386  .00000797  00000+0  68186-4 0  9997
2 51994  53.2178 162.2018 0002043  89.2935 270.8291 15.08843744155577
STARLINK-3636           
1 51995U 22025AR  24366.86342100  .00003538  00000+0  24031-3 0  9996
2 51995  53.2171 162.1516 0001405  90.3694 269.7459 15.08836825155563
STARLINK-3538           
1 51996U 22025AS  24366.84869237  .00000975  00000+0  79314-4 0  9997
2 51996  53.2173 162.2172 0001384  89.4389 270.6762 15.08844196155570
STARLINK-3589           
1 51997U 22025AT  24366.72724311  .00008449  00000+0  54778-3 0  9998
2 51997  53.2156 162.7645 0001951  80.3244 279.7969 15.08873848155544
STARLINK-3618           
1 51998U 22025AU  24366.88549345  .00000559  00000+0  53185-4 0  9994
2 51998  53.2160 162.0521 0001272  84.1086 276.0051 15.08843294155586
STARLINK-3667           
1 51999U 22025AV  24366.71253462  .00001519  00000+0  11351-3 0  9994
2 51999  53.2191 162.8191 0001652  89.4975 270.6206 15.08845867155556
STARLINK-3653           
1 52000U 22025AW  24366.87077368  .00000573  00000+0  54085-4 0  9995
2 52000  53.2165 162.0340 0001445  92.4743 267.6415 15.08833840155585
STARLINK-3659           
1 52001U 22025AX  24366.81653912  .00000691  00000+0  61496-4 0  9990
2 52001  53.2161 162.3721 0001254  92.2768 267.8368 15.08837536155575
STARLINK-3668           
1 52002U 22025AY  24366.15318846  .00002778  00000+0  19258-3 0  9998
2 52002  53.2151 165.3787 0001455  72.4625 287.6526 15.08835952155470
STARLINK-3654           
1 52003U 22025AZ  24366.42270951  .00066541  00000+0  93509-3 0  9992
2 52003  53.2119 156.5040 0001234  11.8040 348.3001 15.56106062157136
STARLINK-3537           
1 52088U 22029A   24366.74905335 -.00000584  00000+0 -17610-4 0  9992
2 52088  53.2185 122.0251 0001155  79.8461 280.2662 15.10289960156840
STARLINK-3722           
1 52089U 22029B   24366.34908446  .00011201  00000+0  71945-3 0  9991
2 52089  53.2143 234.4615 0001264  97.7384 262.3751 15.08903986155231
STARLINK-3712           
1 52090U 22029C   24366.60306267  .00000985  00000+0  79989-4 0  9999
2 52090  53.2168 233.3209 0001557  86.4664 273.6506 15.08837538155274
STARLINK-3713           
1 52091U 22029D   24366.88583737  .00137806  00000+0  12804-2 0  9993
2 52091  53.2171 221.6114 0002670  41.9642 318.1579 15.66506163155460
STARLINK-3716           
1 52092U 22029E   24366.67298376  .00002214  00000+0  15723-3 0  9991
2 52092  53.2162 233.0095 0001671  96.1036 264.0146 15.08828329155281
STARLINK-3673           
1 52093U 22029F   24366.66290045 -.00000279  00000+0  58591-6 0  9999
2 52093  53.2156 233.0615 0001579  86.9094 273.2079 15.08835673155288
STARLINK-3714           
1 52094U 22029G   24366.66561845 -.00001696  00000+0 -88525-4 0  9992
2 52094  53.2164 233.0374 0001623  80.4725 279.6451 15.08834980155284
STARLINK-3701           
1 52095U 22029H   24365.92594636  .00012407  00000+0  79553-3 0  9995
2 52095  53.2186 236.3624 0001740  91.7478 268.3713 15.08873931155176
STARLINK-3717           
1 52096U 22029J   24365.90477840  .00001607  00000+0  11901-3 0  9994
2 52096  53.2174 226.4574 0001605  93.1298 266.9878 15.08843765155295
STARLINK-3665           
1 52098U 22029L   24364.93601650  .00000651  00000+0  58967-4 0  9998
2 52098  53.2143 240.8040 0001582  97.6053 262.5118 15.08848736155026
STARLINK-3702           
1 52100U 22029N   24366.05473997  .00001040  00000+0  83446-4 0  9991
2 52100  53.2166 235.7828 0001579  94.8507 265.2666 15.08840690155198
STARLINK-3703           
1 52101U 22029P   24366.66196542  .00000817  00000+0  69410-4 0  9993
2 52101  53.2166 233.2469 0001353  97.4096 262.7049 15.08834005155274
STARLINK-3709           
1 52102U 22029Q   24366.58653784  .00000844  00000+0  71132-4 0  9995
2 52102  53.2152 223.3978 0001488  90.5022 269.6140 15.08839530155408
STARLINK-3705           
1 52103U 22029R   24366.89101590  .00000695  00000+0  61770-4 0  9994
2 52103  53.2162 222.0247 0001365  95.0488 265.0660 15.08840706155443
STARLINK-3706           
1 52105U 22029T   24366.88461198  .00000862  00000+0  72231-4 0  9998
2 52105  53.2161 222.0544 0001424  91.4337 268.6818 15.08844723155440
STARLINK-3670           
1 52106U 22029U   24366.37490129  .00002605  00000+0  18169-3 0  9995
2 52106  53.2168 234.3428 0001477  93.8020 266.3141 15.08845768155239
STARLINK-3658           
1 52107U 22029V   24366.87997584  .00001027  00000+0  82595-4 0  9990
2 52107  53.2159 222.0776 0001461  84.2818 275.8341 15.08843606155441
STARLINK-3698           
1 52108U 22029W   24365.89373904  .00000136  00000+0  26668-4 0  9995
2 52108  53.2165 226.5045 0001464  87.6725 272.4435 15.08841497155290
STARLINK-3687           
1 52110U 22029Y   24366.88366025  .00000549  00000+0  52565-4 0  9997
2 52110  53.2173 222.0597 0001593  94.0223 266.0952 15.08838854155446
STARLINK-3708           
1 52111U 22029Z   24366.86893857  .00001141  00000+0  89737-4 0  9994
2 52111  53.2162 222.1267 0001574  85.9900 274.1272 15.08841929155442
STARLINK-3734           
1 52112U 22029AA  24366.87631406  .00007431  00000+0  48436-3 0  9994
2 52112  53.2139 222.0932 0001187  98.9127 261.2000 15.08848758155443
STARLINK-3736           
1 52113U 22029AB  24366.86158216  .00001580  00000+0  11732-3 0  9995
2 52113  53.2166 222.1626 0001341  91.4244 268.6902 15.08839507155449
STARLINK-3737           
1 52114U 22029AC  24366.87261904  .00002075  00000+0  14838-3 0  9996
2 52114  53.2143 222.1097 0001482  87.5040 272.6121 15.08845310155440
STARLINK-3685           
1 52115U 22029AD  24366.32432630 -.00004787  00000+0 -28311-3 0  9998
2 52115  53.2183 224.5767 0002052  96.0379 264.0847 15.08810055155368
STARLINK-3735           
1 52116U 22029AE  24366.86526168 -.00001086  00000+0 -50167-4 0  9992
2 52116  53.2159 222.1461 0001129  88.0082 272.1039 15.08837625155447
STARLINK-3738           
1 52117U 22029AF  24366.31694131  .00001144  00000+0  89990-4 0  9998
2 52117  53.2170 224.6088 0001543  98.0771 262.0397 15.08840284155371
STARLINK-3743           
1 52118U 22029AG  24366.32799070  .00002032  00000+0  14570-3 0  9996
2 52118  53.2166 224.5579 0001510 100.3413 259.7750 15.08845117155360
STARLINK-3558           
1 52119U 22029AH  24366.24333784  .00011633  00000+0  74812-3 0  9996
2 52119  53.2154 224.9384 0000804  93.1574 266.9510 15.08821535155360
STARLINK-3534           
1 52120U 22029AJ  24366.32061349  .00001896  00000+0  13715-3 0  9997
2 52120  53.2180 224.5916 0001520  96.0396 264.0769 15.08847676155378
STARLINK-3678           
1 52121U 22029AK  24366.29210105  .00000018  00000+0  19233-4 0  9997
2 52121  53.2156 214.7192 0001535  90.3989 269.7179 15.08837334155490
STARLINK-3726           
1 52122U 22029AL  24366.64445932  .00000159  00000+0  28095-4 0  9997
2 52122  53.2159 223.1371 0001468  93.3907 266.7254 15.08843730155415
STARLINK-3725           
1 52123U 22029AM  24366.60953555  .00003566  00000+0  24204-3 0  9991
2 52123  53.2152 213.2256 0001289  93.0067 267.1072 15.08841415155552
STARLINK-3684           
1 52124U 22029AN  24365.84519676  .01130021  84868-3  93677-3 0  9995
2 52124  53.2048 206.7293 0008219 284.7812  75.2315 16.13382717155574
STARLINK-3727           
1 52125U 22029AP  24366.87721751 -.00000190  00000+0  61875-5 0  9991
2 52125  53.2150 212.0894 0001490  88.4891 271.6272 15.08843288155590
STARLINK-3732           
1 52126U 22029AQ  24366.88458350  .00000648  00000+0  58817-4 0  9993
2 52126  53.2157 212.0587 0001591  91.9556 268.1618 15.08837052155582
STARLINK-3715           
1 52127U 22029AR  24366.87351565  .00003049  00000+0  20943-3 0  9999
2 52127  53.2156 212.1051 0001738  79.7741 280.3447 15.08864424155581
STARLINK-3661           
1 52129U 22029AT  24366.86618043  .00000555  00000+0  52970-4 0  9992
2 52129  53.2174 212.1383 0001617  94.2826 265.8351 15.08837430155593
STARLINK-3711           
1 52131U 22029AV  24366.86250028  .00001748  00000+0  12790-3 0  9990
2 52131  53.2162 212.1540 0001488  92.6561 267.4602 15.08839502155591
